{
    "links": {
        "self": "http://www.neowsapp.com/rest/v1/neo/3827130?api_key=iIulBulltgU6a56xZRHN4H3l9WmuAYTsLGpBGhQ2"
    },
    "id": "3827130",
    "neo_reference_id": "3827130",
    "name": "(2018 PA25)",
    "designation": "2018 PA25",
    "nasa_jpl_url": "http://ssd.jpl.nasa.gov/sbdb.cgi?sstr=3827130",
    "absolute_magnitude_h": 24.8,
    "estimated_diameter": {
        "kilometers": {
            "estimated_diameter_min": 0.0291443905,
            "estimated_diameter_max": 0.0651688382
        },
        "meters": {
            "estimated_diameter_min": 29.1443904535,
            "estimated_diameter_max": 65.1688382168
        },
        "miles": {
            "estimated_diameter_min": 0.018109479,
            "estimated_diameter_max": 0.0404940262
        },
        "feet": {
            "estimated_diameter_min": 95.6180819754,
            "estimated_diameter_max": 213.8085311752
        }
    },
    "is_potentially_hazardous_asteroid": false,
    "close_approach_data": [
        {
            "close_approach_date": "2018-07-31",
            "close_approach_date_full": "2018-Jul-31 15:03",
            "epoch_date_close_approach": 1533049380000,
            "relative_velocity": {
                "kilometers_per_second": "17.8962401702",
                "kilometers_per_hour": "64426.4646128233",
                "miles_per_hour": "40032.0996367846"
            },
            "miss_distance": {
                "astronomical": "0.0273223867",
                "lunar": "10.6284084263",
                "kilometers": "4087370.853636329",
                "miles": "2539774.4775421802"
            },
            "orbiting_body": "Earth"
        },
        {
            "close_approach_date": "2018-09-11",
            "close_approach_date_full": "2018-Sep-11 07:56",
            "epoch_date_close_approach": 1536652560000,
            "relative_velocity": {
                "kilometers_per_second": "14.4615794278",
                "kilometers_per_hour": "52061.6859401646",
                "miles_per_hour": "32349.1070220984"
            },
            "miss_distance": {
                "astronomical": "0.0797649816",
                "lunar": "31.0285778424",
                "kilometers": "11932671.347949192",
                "miles": "7414618.1552031696"
            },
            "orbiting_body": "Mars"
        }
    ],
    "orbital_data": {
        "orbit_id": "1",
        "orbit_determination_date": "2018-08-30 06:52:17",
        "first_observation_date": "2018-08-14",
        "last_observation_date": "2018-08-15",
        "data_arc_in_days": 1,
        "observations_used": 6,
        "orbit_uncertainty": "9",
        "minimum_orbit_intersection": ".0197605",
        "jupiter_tisserand_invariant": "4.685",
        "epoch_osculation": "2458344.5",
        "eccentricity": ".5366227766463222",
        "semi_major_axis": "1.354591645401671",
        "inclination": "11.38180624313296",
        "ascending_node_longitude": "132.4799345209439",
        "orbital_period": "575.8521808812819",
        "perihelion_distance": ".6276869154243161",
        "perihelion_argument": "78.66770208968046",
        "aphelion_distance": "2.081496375379026",
        "perihelion_time": "2458274.684539828771",
        "mean_anomaly": "43.64586346304728",
        "mean_motion": ".6251604351815727",
        "equinox": "J2000",
        "orbit_class": {
            "orbit_class_type": "APO",
            "orbit_class_description": "Near-Earth asteroid orbits which cross the Earth’s orbit similar to that of 1862 Apollo",
            "orbit_class_range": "a (semi-major axis) > 1.0 AU; q (perihelion) < 1.017 AU"
        }
    },
    "is_sentry_object": false
}